LEMUR-2-ANDIS           
1 42838U 17042P   26068.55941107  .00023598  00000+0  79875-3 0  9998
2 42838  97.3659 249.7950 0009101   4.3248 355.8070 15.30557934473198
STARLINK-30085          
1 56709U 23067X   26068.82202005  .00001105  00000+0  49687-4 0  9990
2 56709  43.0009 270.0210 0001763 261.6576  98.4075 15.27572641155461
